[{"OBJECT_NAME":"STARLINK-30086","OBJECT_ID":"2023-056M","EPOCH":"2026-03-09T22:00:01.999584","MEAN_MOTION":15.26715467,"ECCENTRICITY":0.00015248,"INCLINATION":42.9996,"RA_OF_ASC_NODE":207.424,"ARG_OF_PERICENTER":269.6985,"MEAN_ANOMALY":184.367,"EPHEMERIS_TYPE":0,"CLASSIFICATION_TYPE":"U","NORAD_CAT_ID":56297,"ELEMENT_SET_NO":999,"REV_AT_EPOCH":578,"BSTAR":0.00171194,"MEAN_MOTION_DOT":0.00045913,"MEAN_MOTION_DDOT":0},{"OBJECT_NAME":"NEXTSAT-2","OBJECT_ID":"2023-072A","EPOCH":"2026-03-09T23:10:55.073280","MEAN_MOTION":15.26393087,"ECCENTRICITY":0.00062633,"INCLINATION":97.5306,"RA_OF_ASC_NODE":265.1019,"ARG_OF_PERICENTER":22.4193,"MEAN_ANOMALY":337.7318,"EPHEMERIS_TYPE":0,"CLASSIFICATION_TYPE":"U","NORAD_CAT_ID":56743,"ELEMENT_SET_NO":999,"REV_AT_EPOCH":15445,"BSTAR":0.00056400163,"MEAN_MOTION_DOT":0.00014622,"MEAN_MOTION_DDOT":0}]
